{"type": "FeatureCollection", "features": [{"type": "Feature", "properties": {"osm_relation": 14981, "ref": "S41", "name": "S41: Ring im Uhrzeigersinn \u21bb", "source": "OpenStreetMap contributors (ODbL), relation 14981 via api.openstreetmap.org"}, "geometry": {"type": "LineString", "coordinates": [[13.3899951, 52.5491593], [13.3902919, 52.5491717], [13.3903693, 52.5491746], [13.3906587, 52.5491886], [13.390695, 52.5491899], [13.3907111, 52.5491904], [13.3907725, 52.5491931], [13.3908934, 52.5491989], [13.3918507, 52.5492389], [13.3922615, 52.5492543], [13.3926284, 52.5492697], [13.393853, 52.5493101], [13.3940359, 52.5493161], [13.3959888, 52.5493786], [13.3969621, 52.5493947], [13.397921, 52.5493968], [13.3990333, 52.5494003], [13.3992366, 52.549401], [13.3992987, 52.5494012], [13.3994606, 52.5494017], [13.4010269, 52.5494053], [13.4015208, 52.5494126], [13.4020168, 52.5494271], [13.4026351, 52.5494602], [13.4049744, 52.5495817], [13.4051402, 52.5495905], [13.4066592, 52.5496709], [13.4072948, 52.5497007], [13.4077888, 52.549716], [13.4080202, 52.5497202], [13.408444, 52.5497241], [13.4087665, 52.5497221], [13.4091004, 52.5497184], [13.4094343, 52.5497073], [13.4097683, 52.5496941], [13.4101085, 52.5496773], [13.4107017, 52.5496402], [13.4112782, 52.5496011], [13.4117958, 52.5495681], [13.4125857, 52.5495157], [13.4133526, 52.549467], [13.413914, 52.5494243], [13.4140114, 52.5494165], [13.4143261, 52.5493888], [13.414383, 52.5493838], [13.4143866, 52.5493835], [13.4143916, 52.549383], [13.4144414, 52.549378], [13.4144922, 52.5493724], [13.4146503, 52.5493521], [13.414828, 52.5493284], [13.4150543, 52.5492923], [13.4152487, 52.5492558], [13.4156925, 52.5491521], [13.4161207, 52.5490362], [13.4162691, 52.5489959], [13.4164114, 52.5489522], [13.4165954, 52.5488937], [13.4166412, 52.5488787], [13.4170468, 52.5487483], [13.4173007, 52.5486672], [13.4174835, 52.5486072], [13.4179271, 52.5484615], [13.4180993, 52.5484044], [13.4195021, 52.5479387], [13.4199728, 52.5477824], [13.4202298, 52.5476921], [13.420623, 52.5475353], [13.4210001, 52.5473669], [13.4231129, 52.5462075], [13.4239101, 52.5457677], [13.4243158, 52.5455429], [13.4245386, 52.5454217], [13.4246898, 52.5453381], [13.4248607, 52.5452431], [13.4250793, 52.5451267], [13.4252984, 52.5450171], [13.4255198, 52.5449078], [13.425819, 52.5447775], [13.4260442, 52.5446853], [13.4262424, 52.5446103], [13.4264109, 52.5445496], [13.42654, 52.5445032], [13.4269541, 52.5443589], [13.4270814, 52.5443149], [13.4270949, 52.5443103], [13.4275172, 52.5441646], [13.429489, 52.5434831], [13.4298732, 52.5433651], [13.4302266, 52.543263], [13.4303717, 52.5432249], [13.4305042, 52.5431899], [13.431049, 52.543046], [13.43172, 52.5428707], [13.4322454, 52.5427344], [13.4327313, 52.5426012], [13.433156, 52.542472], [13.433697, 52.5422822], [13.4338259, 52.5422345], [13.4340667, 52.5421458], [13.4345523, 52.5419654], [13.434932, 52.5418243], [13.4363689, 52.5412911], [13.4365288, 52.5412315], [13.4370459, 52.5410388], [13.4374283, 52.5408858], [13.4377208, 52.5407569], [13.4377816, 52.5407284], [13.4379825, 52.5406359], [13.4384656, 52.5404123], [13.4384835, 52.5404039], [13.4394918, 52.5399384], [13.4396585, 52.5398615], [13.4398295, 52.539783], [13.4400104, 52.5397], [13.4403648, 52.5395358], [13.4403913, 52.5395236], [13.4405192, 52.5394647], [13.4408997, 52.5392948], [13.4412276, 52.5391543], [13.4414776, 52.5390558], [13.4416868, 52.5389749], [13.4420289, 52.538845], [13.4426213, 52.538625], [13.4437811, 52.5381952], [13.4450565, 52.5377222], [13.4455792, 52.5375285], [13.446075, 52.5373385], [13.4462711, 52.5372565], [13.4464561, 52.5371715], [13.446634, 52.5370847], [13.4468012, 52.5369973], [13.4470715, 52.5368412], [13.4472557, 52.5367261], [13.4474523, 52.5365898], [13.4475439, 52.536525], [13.4476307, 52.5364572], [13.4477725, 52.5363435], [13.4481244, 52.5360179], [13.4505066, 52.5336338], [13.4505383, 52.5336019], [13.4519201, 52.5322188], [13.4526678, 52.5314698], [13.453476, 52.5306617], [13.4537752, 52.5303617], [13.4539231, 52.5302134], [13.453949, 52.5301885], [13.4539776, 52.5301598], [13.4542719, 52.5298649], [13.4545358, 52.5296068], [13.4551446, 52.5290131], [13.4552684, 52.5288924], [13.4553807, 52.5287843], [13.4560029, 52.5281702], [13.4566286, 52.5275787], [13.4573921, 52.5268733], [13.4574081, 52.5268585], [13.4575183, 52.5267573], [13.4576523, 52.5266343], [13.4578212, 52.5264825], [13.4580007, 52.526335], [13.4581909, 52.526187], [13.4583956, 52.5260422], [13.4587101, 52.5258479], [13.4589512, 52.5257122], [13.4592719, 52.5255568], [13.4594968, 52.5254538], [13.4596822, 52.5253781], [13.4598596, 52.5253088], [13.459869, 52.5253052], [13.4600592, 52.5252344], [13.4602089, 52.5251827], [13.4608611, 52.5249571], [13.4617583, 52.5246572], [13.4622996, 52.5244771], [13.4623648, 52.5244554], [13.4631526, 52.5241926], [13.4633855, 52.524115], [13.4637349, 52.5239978], [13.4640261, 52.5239065], [13.4643133, 52.5238226], [13.4645924, 52.5237494], [13.4648816, 52.5236809], [13.4653073, 52.5235887], [13.4656543, 52.5235155], [13.4658132, 52.5234817], [13.4662242, 52.5233944], [13.4663367, 52.5233705], [13.4669908, 52.523229], [13.4673167, 52.5231512], [13.4676371, 52.5230646], [13.467906, 52.5229814], [13.4681713, 52.5228861], [13.4683999, 52.5227978], [13.4686118, 52.5226971], [13.4688, 52.5226045], [13.4689808, 52.5225075], [13.4691625, 52.5224013], [13.4693369, 52.5222894], [13.4695462, 52.5221424], [13.4697426, 52.5219848], [13.4699088, 52.5218405], [13.4700622, 52.5216873], [13.4701929, 52.5215478], [13.4703108, 52.5214026], [13.4704576, 52.5211951], [13.4705916, 52.5209853], [13.4708049, 52.52061], [13.4709333, 52.5203774], [13.4712413, 52.5198264], [13.4713291, 52.5196991], [13.4721882, 52.5184853], [13.4731759, 52.5170817], [13.4735638, 52.5165277], [13.4737473, 52.5162434], [13.4738472, 52.5160748], [13.4738812, 52.516016], [13.4739137, 52.5159583], [13.4739515, 52.5158915], [13.4741202, 52.5155838], [13.4742884, 52.5152869], [13.4742937, 52.5152775], [13.4744065, 52.5150814], [13.4746348, 52.5146847], [13.4746506, 52.51466], [13.4747039, 52.5145767], [13.4747915, 52.5144445], [13.4748034, 52.5144262], [13.4748748, 52.5143142], [13.4749951, 52.5141121], [13.4750541, 52.5139899], [13.4750925, 52.5138823], [13.4752022, 52.5134428], [13.4752177, 52.5133756], [13.4752187, 52.5133714], [13.4754926, 52.5122451], [13.4755019, 52.5122068], [13.4756015, 52.5118021], [13.4756378, 52.5116193], [13.4756662, 52.5113845], [13.4756728, 52.511229], [13.4756675, 52.5110803], [13.4756528, 52.5109444], [13.4756225, 52.5107648], [13.4755843, 52.5106112], [13.4755363, 52.5104643], [13.4754451, 52.5102514], [13.4753353, 52.5100518], [13.4751787, 52.5098208], [13.4750744, 52.5096913], [13.4749324, 52.509523], [13.474608, 52.5091822], [13.4745279, 52.5090978], [13.4745126, 52.5090816], [13.4736622, 52.5081901], [13.4735585, 52.5080809], [13.4733495, 52.5078614], [13.4730005, 52.5074947], [13.4728544, 52.5073422], [13.4723268, 52.50679], [13.4722448, 52.5067043], [13.471702, 52.5061407], [13.4714343, 52.505885], [13.4713511, 52.5058092], [13.4712481, 52.5057242], [13.4710943, 52.5055973], [13.4708608, 52.5054031], [13.470422, 52.5050412], [13.4701949, 52.5048532], [13.4701785, 52.5048405], [13.4700778, 52.5047539], [13.4698199, 52.5045208], [13.4696145, 52.5043009], [13.4696042, 52.5042899], [13.4695938, 52.5042777], [13.4694703, 52.504138], [13.4694403, 52.5040977], [13.4692922, 52.5038985], [13.4690568, 52.5035035], [13.4689771, 52.5033385], [13.468943, 52.5032683], [13.4689153, 52.5031982], [13.4688562, 52.503015], [13.4688277, 52.5029187], [13.4687755, 52.5027427], [13.4687517, 52.5026443], [13.4687501, 52.5026333], [13.4687367, 52.5025382], [13.4687101, 52.5024075], [13.4687014, 52.5023616], [13.4686559, 52.5020356], [13.4685895, 52.5017516], [13.4685426, 52.5015918], [13.4684854, 52.5014222], [13.4683521, 52.5010741], [13.46827, 52.500875], [13.468269, 52.5008725], [13.468231, 52.5007803], [13.4679357, 52.5000418], [13.4677552, 52.4995902], [13.4677324, 52.4995338], [13.4676312, 52.4992835], [13.4674917, 52.4989483], [13.4673828, 52.4987079], [13.4672429, 52.498465], [13.4670629, 52.4982281], [13.466954, 52.4981017], [13.4667692, 52.4979149], [13.4666425, 52.4977982], [13.4665397, 52.4977078], [13.4663488, 52.4975362], [13.4661432, 52.4973687], [13.4658027, 52.4971197], [13.4656132, 52.4969896], [13.4647793, 52.4964247], [13.4644144, 52.4961757], [13.4639469, 52.4958463], [13.4632692, 52.4953569], [13.4631169, 52.4952597], [13.4628698, 52.4950752], [13.4626611, 52.4949067], [13.4624785, 52.4947503], [13.4624526, 52.4947265], [13.4623326, 52.4946153], [13.4623167, 52.4945998], [13.4622381, 52.4945269], [13.4621244, 52.4944167], [13.4617574, 52.4940649], [13.461584, 52.4938906], [13.4613814, 52.4936654], [13.4612421, 52.4934982], [13.4611736, 52.493408], [13.461103, 52.4933145], [13.4610029, 52.4931624], [13.4608993, 52.4929963], [13.4608868, 52.4929763], [13.4607203, 52.4927], [13.4604832, 52.4923409], [13.4600993, 52.4917848], [13.4600859, 52.4917654], [13.4595052, 52.4909546], [13.4591677, 52.4904873], [13.4591408, 52.4904472], [13.459056, 52.4903121], [13.458962, 52.4901461], [13.4589061, 52.4900336], [13.4588558, 52.489905], [13.4587954, 52.4897438], [13.4587584, 52.4895974], [13.4587385, 52.4894406], [13.4587265, 52.4892586], [13.4587301, 52.4890852], [13.4587482, 52.4888723], [13.4587957, 52.4884505], [13.4588101, 52.4883067], [13.4588542, 52.4878775], [13.4588781, 52.4875986], [13.4588869, 52.4873692], [13.4588879, 52.4871665], [13.4588839, 52.4870174], [13.4588777, 52.4868909], [13.4588622, 52.4866914], [13.458838, 52.4864935], [13.4587948, 52.4862285], [13.4587444, 52.4859653], [13.4587017, 52.4857543], [13.4586347, 52.4854221], [13.4584115, 52.484311], [13.4583468, 52.4839973], [13.4578986, 52.4817699], [13.4578509, 52.4815341], [13.4572966, 52.478793], [13.4571858, 52.478243], [13.4566159, 52.4754096], [13.4564828, 52.4747536], [13.4564603, 52.4746538], [13.4564595, 52.4746509], [13.456416, 52.4744851], [13.4563339, 52.4742348], [13.4561965, 52.4739131], [13.4560509, 52.4736252], [13.4560103, 52.4735614], [13.4558133, 52.4732644], [13.4556204, 52.4730049], [13.4553053, 52.4726684], [13.455168, 52.4725382], [13.4551154, 52.472491], [13.4549059, 52.4723025], [13.4548581, 52.4722623], [13.4548186, 52.4722299], [13.4543126, 52.4718451], [13.4540813, 52.4716913], [13.4537356, 52.4715011], [13.4534921, 52.4713829], [13.4532158, 52.4712667], [13.452911, 52.4711581], [13.45274, 52.4711037], [13.4525609, 52.4710512], [13.4524573, 52.4710236], [13.4520695, 52.4709341], [13.4518192, 52.4708846], [13.4515643, 52.4708376], [13.4509109, 52.4707254], [13.4497675, 52.4705454], [13.4486601, 52.4703672], [13.4475417, 52.4701861], [13.4469019, 52.470084], [13.4461391, 52.4699588], [13.4448608, 52.4697588], [13.4445135, 52.4697062], [13.4438786, 52.4696078], [13.4425954, 52.4694162], [13.4423656, 52.4693782], [13.4421642, 52.4693466], [13.4419623, 52.4693139], [13.4419345, 52.469309], [13.4419192, 52.4693063], [13.4416086, 52.4692464], [13.441515, 52.4692284], [13.4410895, 52.4691383], [13.4408095, 52.4690827], [13.4405141, 52.4690281], [13.4402134, 52.4689783], [13.4393464, 52.468848], [13.4391511, 52.468818], [13.438495, 52.4687187], [13.4382086, 52.4686747], [13.4371691, 52.4685157], [13.4353403, 52.4682389], [13.4352782, 52.4682295], [13.4344393, 52.4681027], [13.4344254, 52.4681007], [13.433514, 52.4679705], [13.4329966, 52.4679118], [13.4324441, 52.4678572], [13.4322967, 52.4678424], [13.43209, 52.4678205], [13.4318554, 52.467789], [13.4316222, 52.4677556], [13.4303783, 52.467572], [13.4303522, 52.4675681], [13.4300535, 52.4675234], [13.4299488, 52.467508], [13.4299307, 52.4675052], [13.4299105, 52.4675019], [13.4295943, 52.4674548], [13.4291524, 52.4673889], [13.4285054, 52.4673003], [13.4279664, 52.4672322], [13.4267871, 52.4670928], [13.4266877, 52.467081], [13.4243803, 52.4668002], [13.4238342, 52.4667269], [13.4234892, 52.4666731], [13.4231311, 52.4666104], [13.4227693, 52.4665428], [13.4227336, 52.4665358], [13.4218073, 52.4663535], [13.4210128, 52.4662095], [13.4206563, 52.4661527], [13.4201116, 52.4660781], [13.4197032, 52.4660297], [13.4192938, 52.4659867], [13.4181277, 52.4658766], [13.4160619, 52.4656845], [13.415209, 52.4656045], [13.4143035, 52.4655206], [13.4125472, 52.4653711], [13.409671, 52.4651256], [13.408537, 52.4650283], [13.4082733, 52.4650067], [13.4080739, 52.4649915], [13.4073471, 52.4649444], [13.4065979, 52.4649203], [13.4061125, 52.4649157], [13.4056237, 52.4649227], [13.4051434, 52.4649411], [13.4047318, 52.4649663], [13.4043282, 52.4649997], [13.4036792, 52.4650725], [13.4031973, 52.4651444], [13.4026185, 52.4652455], [13.4020397, 52.4653612], [13.4008468, 52.4656659], [13.3991061, 52.4661402], [13.3988566, 52.4662122], [13.3981785, 52.4664219], [13.397554, 52.4666298], [13.3968218, 52.4668953], [13.3962419, 52.4671236], [13.3956869, 52.4673556], [13.3945435, 52.4678583], [13.3935581, 52.4682897], [13.3933043, 52.4684018], [13.391891, 52.4690166], [13.3916178, 52.4691201], [13.3911065, 52.4693071], [13.3908172, 52.469404], [13.3903057, 52.4695629], [13.38991, 52.4696735], [13.389511, 52.4697761], [13.3888186, 52.4699464], [13.3886944, 52.4699769], [13.3876491, 52.4702325], [13.3868935, 52.4704198], [13.3865226, 52.4705179], [13.3860348, 52.4706469], [13.385953, 52.4706688], [13.3859152, 52.4706787], [13.3854581, 52.4708016], [13.3853557, 52.4708291], [13.3853265, 52.4708373], [13.3849618, 52.4709319], [13.3848638, 52.4709547], [13.3844825, 52.4710365], [13.3841255, 52.4711184], [13.3838337, 52.4711773], [13.3837007, 52.4711993], [13.3835184, 52.4712316], [13.383392, 52.4712517], [13.383227, 52.4712787], [13.3831188, 52.4712964], [13.3830088, 52.471315], [13.3829008, 52.4713326], [13.3827725, 52.4713536], [13.3826792, 52.4713687], [13.3822728, 52.4714346], [13.3819571, 52.4714869], [13.381297, 52.4715943], [13.3807703, 52.4716793], [13.3805606, 52.471714], [13.3802583, 52.471757], [13.3800339, 52.4717874], [13.379758, 52.4718188], [13.3795217, 52.471841], [13.3792967, 52.4718577], [13.3790619, 52.4718717], [13.3787075, 52.471887], [13.3782332, 52.4718945], [13.3775893, 52.471899], [13.3763499, 52.4719071], [13.372701, 52.47193], [13.372543, 52.4719309], [13.3722557, 52.4719325], [13.3718681, 52.4719366], [13.3714592, 52.4719452], [13.3710864, 52.4719636], [13.3708708, 52.4719803], [13.3706632, 52.4720005], [13.3703464, 52.4720433], [13.3700797, 52.4720911], [13.3698298, 52.4721454], [13.3695937, 52.4722064], [13.3693295, 52.4722862], [13.3691151, 52.4723597], [13.3689021, 52.4724395], [13.3687326, 52.4725099], [13.3685606, 52.4725852], [13.3683969, 52.4726612], [13.3682289, 52.4727456], [13.3680197, 52.4728595], [13.3678622, 52.4729525], [13.3677107, 52.4730498], [13.3674924, 52.4732019], [13.3673303, 52.4733307], [13.3672728, 52.4733788], [13.367121, 52.4735163], [13.3669728, 52.4736663], [13.3668213, 52.4738343], [13.3666809, 52.4740086], [13.3665393, 52.474203], [13.366458, 52.4743295], [13.3663714, 52.4744768], [13.3663263, 52.4745638], [13.3662549, 52.4747018], [13.3661164, 52.4749877], [13.3660826, 52.4750693], [13.3660538, 52.4751318], [13.3659413, 52.475385], [13.3656724, 52.4758161], [13.3653382, 52.4763351], [13.3651972, 52.4765353], [13.3651339, 52.4766217], [13.3650928, 52.4766774], [13.365085, 52.4766879], [13.3649639, 52.4768379], [13.3648205, 52.4770022], [13.3647444, 52.477085], [13.3646756, 52.4771557], [13.3646052, 52.4772229], [13.364523, 52.4772998], [13.3644241, 52.4773856], [13.3643473, 52.4774464], [13.3642625, 52.4775127], [13.3641779, 52.4775727], [13.3640472, 52.477661], [13.3639124, 52.4777461], [13.3637453, 52.4778461], [13.3635093, 52.4779711], [13.3632939, 52.47808], [13.3631063, 52.4781688], [13.3629148, 52.4782572], [13.3626444, 52.4783744], [13.362327, 52.4785039], [13.3622164, 52.4785476], [13.3619881, 52.478633], [13.3617449, 52.4787207], [13.3612646, 52.4788891], [13.3604567, 52.4791701], [13.3603554, 52.479206], [13.360046, 52.4793091], [13.3596825, 52.4794218], [13.359446, 52.4794894], [13.3591909, 52.4795565], [13.3589178, 52.4796231], [13.3586903, 52.4796738], [13.358645, 52.4796837], [13.3584126, 52.4797297], [13.3582021, 52.4797677], [13.3581849, 52.4797706], [13.3579852, 52.4797997], [13.3577518, 52.4798282], [13.3575349, 52.4798479], [13.3573685, 52.4798598], [13.3572064, 52.4798681], [13.3569717, 52.4798736], [13.3567335, 52.4798725], [13.3564485, 52.4798655], [13.3561085, 52.479854], [13.3557247, 52.4798391], [13.3550986, 52.4798131], [13.3546396, 52.4797951], [13.3542892, 52.4797808], [13.3541415, 52.4797735], [13.3539242, 52.4797586], [13.3537827, 52.4797462], [13.3536151, 52.4797298], [13.3534472, 52.4797098], [13.3533903, 52.4797023], [13.3533088, 52.4796899], [13.3531502, 52.4796645], [13.3528873, 52.4796192], [13.3528275, 52.4796082], [13.3526849, 52.4795836], [13.35199, 52.4794518], [13.351637, 52.4793791], [13.3512793, 52.479304], [13.3509197, 52.4792174], [13.3506097, 52.4791368], [13.3504105, 52.4790826], [13.3500683, 52.4789884], [13.3499793, 52.4789632], [13.3498832, 52.4789367], [13.3486468, 52.4785893], [13.3484934, 52.4785466], [13.3479916, 52.4784088], [13.3477651, 52.4783514], [13.3475025, 52.4782912], [13.347364, 52.4782616], [13.347228, 52.478236], [13.3468552, 52.4781772], [13.3466344, 52.4781496], [13.3464323, 52.4781293], [13.3462123, 52.4781122], [13.346053, 52.4781033], [13.3459304, 52.4780981], [13.345781, 52.4780952], [13.3450156, 52.4780914], [13.3440735, 52.4781077], [13.3435477, 52.4781222], [13.3430516, 52.4781416], [13.34295, 52.4781449], [13.3427923, 52.4781487], [13.3426407, 52.4781541], [13.3426246, 52.4781547], [13.3423395, 52.4781621], [13.3421086, 52.478167], [13.3418107, 52.4781703], [13.3415118, 52.4781733], [13.3414197, 52.4781735], [13.3411714, 52.4781733], [13.3408887, 52.4781716], [13.3406589, 52.478168], [13.3404135, 52.4781641], [13.3402369, 52.4781599], [13.3400239, 52.4781531], [13.339359, 52.4781311], [13.3387574, 52.4781115], [13.3382442, 52.4780959], [13.3374541, 52.4780658], [13.3366689, 52.4780325], [13.3359969, 52.4779874], [13.3351119, 52.4779256], [13.3347853, 52.4779013], [13.332945, 52.4777719], [13.3325918, 52.4777474], [13.3323197, 52.4777314], [13.3320475, 52.4777215], [13.3318954, 52.4777163], [13.3312301, 52.4777098], [13.3312189, 52.47771], [13.3310909, 52.4777101], [13.3308441, 52.4777085], [13.3305473, 52.4777071], [13.3302905, 52.477707], [13.3298721, 52.4777053], [13.3289611, 52.4777023], [13.3288442, 52.4777012], [13.3282704, 52.4776946], [13.3281527, 52.4776933], [13.3281351, 52.4776933], [13.3280976, 52.4776933], [13.3278065, 52.4776908], [13.3273691, 52.4776861], [13.3269979, 52.4776821], [13.326233, 52.4776743], [13.3251822, 52.4776651], [13.325015, 52.4776637], [13.3249915, 52.4776634], [13.3245589, 52.4776636], [13.3224083, 52.4776755], [13.3205006, 52.4776872], [13.3200809, 52.4776906], [13.3200632, 52.4776908], [13.3198376, 52.4776952], [13.3194684, 52.477706], [13.3192478, 52.4777158], [13.3190878, 52.4777265], [13.3188858, 52.4777399], [13.3186535, 52.4777593], [13.3183863, 52.4777873], [13.3178912, 52.477853], [13.3174021, 52.4779296], [13.3169645, 52.4780061], [13.3166037, 52.4780786], [13.3161961, 52.4781695], [13.3158107, 52.4782646], [13.3154673, 52.4783608], [13.315204, 52.4784412], [13.3150183, 52.4785012], [13.3147273, 52.4786045], [13.3144109, 52.4787264], [13.3141418, 52.4788379], [13.3140078, 52.4788977], [13.3136655, 52.4790562], [13.3133149, 52.4792322], [13.3133043, 52.4792377], [13.3131235, 52.4793321], [13.3127531, 52.4795392], [13.3121792, 52.4798814], [13.3118403, 52.4801057], [13.311799, 52.4801339], [13.3115423, 52.480308], [13.3115348, 52.4803131], [13.3113393, 52.4804521], [13.3111811, 52.4805593], [13.3110936, 52.4806206], [13.3109335, 52.4807361], [13.3107305, 52.4808735], [13.3097697, 52.4815432], [13.3092974, 52.4818753], [13.308833, 52.4822065], [13.3079816, 52.4828374], [13.3074775, 52.4832115], [13.3066257, 52.4838434], [13.3061118, 52.4842246], [13.3047539, 52.4852355], [13.3042765, 52.4855903], [13.3024178, 52.4869717], [13.3024168, 52.4869724], [13.3024158, 52.4869732], [13.3022071, 52.4871314], [13.3019831, 52.4873066], [13.301788, 52.4874707], [13.3016, 52.4876364], [13.3012392, 52.4879589], [13.3011736, 52.4880104], [13.3006916, 52.4883883], [13.3003254, 52.4886599], [13.2999556, 52.4889341], [13.2997653, 52.4890753], [13.2996761, 52.4891367], [13.2996662, 52.4891433], [13.2996611, 52.4891469], [13.2996564, 52.4891502], [13.2995564, 52.4892213], [13.2994022, 52.4893296], [13.2991738, 52.48948], [13.2989453, 52.4896251], [13.2986028, 52.4898407], [13.298269, 52.4900628], [13.2976146, 52.4905411], [13.2974613, 52.4906541], [13.2968101, 52.4911387], [13.2963328, 52.4914932], [13.2957494, 52.4919413], [13.295402, 52.4922536], [13.295076, 52.4925869], [13.2949399, 52.492735], [13.2947103, 52.4929774], [13.2944743, 52.4932071], [13.2942854, 52.4933766], [13.2940071, 52.4935993], [13.2935038, 52.4939755], [13.2932739, 52.4941427], [13.2928458, 52.4944217], [13.2923357, 52.4947821], [13.2915836, 52.495338], [13.2915398, 52.4953712], [13.2914171, 52.4954627], [13.2913305, 52.4955281], [13.2911234, 52.4956817], [13.2911182, 52.4956857], [13.2906869, 52.4960144], [13.2899568, 52.4965244], [13.2898172, 52.4966219], [13.2898078, 52.4966283], [13.2897301, 52.4966798], [13.2896563, 52.4967316], [13.2895915, 52.4967764], [13.2892861, 52.4969873], [13.2890857, 52.4971289], [13.2888134, 52.4973181], [13.2887395, 52.4973695], [13.2885847, 52.4974749], [13.288473, 52.497557], [13.2881292, 52.4977918], [13.2879376, 52.4979281], [13.2877545, 52.4980612], [13.2874099, 52.4983158], [13.2872189, 52.4984521], [13.2870299, 52.4985819], [13.2868751, 52.4986833], [13.2866819, 52.4988055], [13.2863799, 52.4989827], [13.285685, 52.499382], [13.2856801, 52.4993847], [13.2856103, 52.4994249], [13.2853353, 52.4995882], [13.2850701, 52.499759], [13.2849251, 52.4998659], [13.2847244, 52.5000315], [13.2845556, 52.5001944], [13.2844367, 52.5003232], [13.2843192, 52.5004566], [13.2840405, 52.5007771], [13.283829, 52.5010284], [13.2835436, 52.5013808], [13.2833767, 52.5015863], [13.2833674, 52.5015975], [13.2833549, 52.5016125], [13.2832806, 52.5017016], [13.2832082, 52.5017974], [13.2830762, 52.5019804], [13.2829459, 52.5021834], [13.2828265, 52.5023865], [13.2827333, 52.5025646], [13.2826805, 52.5026842], [13.2826067, 52.5028699], [13.2825286, 52.5030875], [13.2824892, 52.503243], [13.2824545, 52.5033977], [13.2824492, 52.5034234], [13.2824433, 52.5034513], [13.2824077, 52.5036971], [13.2823881, 52.5039483], [13.2823901, 52.5041469], [13.2824335, 52.5046501], [13.2825134, 52.5051668], [13.2825171, 52.5051877], [13.2825736, 52.5054587], [13.282661, 52.5058091], [13.2827369, 52.5060802], [13.282806, 52.5062911], [13.2829259, 52.5065937], [13.283006, 52.5067802], [13.2830469, 52.5068594], [13.2830772, 52.5069141], [13.2830978, 52.5069507], [13.2831535, 52.5070481], [13.2832594, 52.5072165], [13.2833609, 52.5073675], [13.283442, 52.5074772], [13.2834981, 52.5075582], [13.2835505, 52.5076301], [13.2837867, 52.5079583], [13.2839054, 52.5081233], [13.283939, 52.50817], [13.2840163, 52.5082764], [13.2840839, 52.5083693], [13.2841381, 52.5084419], [13.2844462, 52.5088665], [13.2849031, 52.5095029], [13.2850627, 52.5097245], [13.285234, 52.5099657], [13.2854106, 52.5102283], [13.2855993, 52.5105599], [13.2856902, 52.5107362], [13.2857661, 52.5108938], [13.285834, 52.5110415], [13.2859246, 52.5112599], [13.2859868, 52.5114229], [13.2860658, 52.5116693], [13.2861295, 52.5119168], [13.2862002, 52.5122513], [13.2862437, 52.5125851], [13.2862521, 52.5128479], [13.2862548, 52.5130745], [13.2862144, 52.5134529], [13.2861872, 52.5136202], [13.2861524, 52.5137878], [13.2860913, 52.5140208], [13.2860143, 52.5142566], [13.2859313, 52.5144738], [13.2858479, 52.5146657], [13.285769, 52.514842], [13.2854615, 52.5155204], [13.28542, 52.5156157], [13.2851507, 52.5163356], [13.2851278, 52.5164002], [13.2847892, 52.5173497], [13.2847614, 52.5174288], [13.2846463, 52.5177544], [13.2845527, 52.5180294], [13.2845338, 52.518085], [13.2844953, 52.5181815], [13.2843271, 52.5187215], [13.2843103, 52.5187699], [13.2842981, 52.518806], [13.2842501, 52.5189662], [13.2841924, 52.5191588], [13.2839669, 52.5199158], [13.283965, 52.519922], [13.2838395, 52.5203424], [13.2837937, 52.5204967], [13.2837356, 52.5206927], [13.283713, 52.5207765], [13.2836205, 52.5211172], [13.283595, 52.5212163], [13.2834924, 52.5216526], [13.2833961, 52.5220469], [13.2832324, 52.5227377], [13.283039, 52.5235577], [13.2828418, 52.5244021], [13.2827902, 52.5246215], [13.2827403, 52.5248494], [13.2827036, 52.5250395], [13.2826861, 52.5251624], [13.2826686, 52.5253055], [13.2826576, 52.5254337], [13.2826528, 52.5255576], [13.2826553, 52.5256745], [13.2826604, 52.5257892], [13.2826723, 52.5258852], [13.2826946, 52.5260153], [13.2827219, 52.5261351], [13.2827594, 52.5262809], [13.282803, 52.5264043], [13.2828454, 52.5265092], [13.2829085, 52.5266433], [13.2829825, 52.52678], [13.2830522, 52.5268814], [13.2831179, 52.5269797], [13.2831932, 52.527081], [13.2832752, 52.5271845], [13.2833577, 52.5272788], [13.2834705, 52.5274003], [13.2835413, 52.5274735], [13.2836318, 52.5275557], [13.2837189, 52.5276332], [13.2838283, 52.5277239], [13.2839243, 52.5277994], [13.2840198, 52.527869], [13.284135, 52.5279499], [13.2842453, 52.528024], [13.2843343, 52.5280789], [13.2844354, 52.5281384], [13.2845652, 52.5282124], [13.2846865, 52.5282764], [13.2848236, 52.5283443], [13.2849509, 52.5284049], [13.2850702, 52.5284601], [13.2852269, 52.5285261], [13.2853347, 52.5285682], [13.2853835, 52.5285875], [13.2854649, 52.5286183], [13.2855488, 52.5286481], [13.2856902, 52.5287013], [13.2858806, 52.5287667], [13.2860717, 52.5288239], [13.2862471, 52.528874], [13.286452, 52.5289343], [13.2867279, 52.5290065], [13.2868898, 52.5290445], [13.287061, 52.5290843], [13.2872432, 52.5291197], [13.2874418, 52.5291521], [13.2876046, 52.5291763], [13.2877906, 52.529198], [13.2879669, 52.5292174], [13.2881767, 52.5292343], [13.2884494, 52.5292512], [13.2887167, 52.5292677], [13.2890038, 52.5292791], [13.2895058, 52.5292957], [13.2900357, 52.5293097], [13.2902274, 52.5293154], [13.2906012, 52.5293301], [13.2908854, 52.5293415], [13.2911762, 52.529355], [13.2919741, 52.5294013], [13.2922452, 52.5294213], [13.2927833, 52.5294631], [13.2934064, 52.5295213], [13.2938458, 52.5295659], [13.2942475, 52.5296136], [13.2943282, 52.5296232], [13.294893, 52.5296943], [13.2954477, 52.5297716], [13.2957524, 52.5298168], [13.29641, 52.5299222], [13.296427, 52.529925], [13.2967772, 52.5299827], [13.2980282, 52.5301679], [13.2999312, 52.5304254], [13.30019, 52.5304604], [13.3002882, 52.5304735], [13.3004442, 52.5304951], [13.3005715, 52.5305115], [13.3006031, 52.5305156], [13.3006153, 52.5305172], [13.3026458, 52.5307841], [13.3037661, 52.530907], [13.3046571, 52.5310091], [13.3059286, 52.5311721], [13.306469, 52.5312413], [13.3076165, 52.5313951], [13.30793, 52.5314371], [13.3125527, 52.532059], [13.3136833, 52.5322095], [13.3143291, 52.5322977], [13.3160791, 52.5325411], [13.3179158, 52.5327873], [13.3206267, 52.5331509], [13.3221264, 52.5333525], [13.3247442, 52.5337021], [13.3258695, 52.5338594], [13.3269515, 52.5340151], [13.3277064, 52.5341225], [13.3280356, 52.5341684], [13.3287664, 52.5342702], [13.3300021, 52.5344182], [13.3304516, 52.5344712], [13.3343433, 52.5349495], [13.3383814, 52.5354457], [13.3389432, 52.5355143], [13.3389789, 52.5355186], [13.3426694, 52.5359911], [13.3427779, 52.5360049], [13.3431649, 52.5360548], [13.3442841, 52.5361996], [13.3442936, 52.5362008], [13.3447354, 52.5362596], [13.3449438, 52.5362865], [13.3453148, 52.5363348], [13.3453711, 52.5363421], [13.3453767, 52.5363429], [13.3454184, 52.5363484], [13.345442, 52.5363513], [13.3455324, 52.5363634], [13.3459379, 52.5364112], [13.3464177, 52.5364578], [13.3473681, 52.5365343], [13.347919, 52.5365877], [13.3483838, 52.5366481], [13.3487886, 52.5367131], [13.3490156, 52.5367535], [13.3491352, 52.5367754], [13.3495501, 52.5368453], [13.3500182, 52.5369234], [13.3504783, 52.536992], [13.3509076, 52.5370432], [13.3513826, 52.5370833], [13.3522985, 52.5371586], [13.3529843, 52.5372128], [13.3535026, 52.5372542], [13.3536485, 52.5372678], [13.353819, 52.5372859], [13.3539952, 52.5373067], [13.3542958, 52.5373494], [13.3544951, 52.5373851], [13.3546946, 52.5374257], [13.3550614, 52.5375077], [13.3554526, 52.53763], [13.3557099, 52.5377202], [13.3559529, 52.5378175], [13.3560469, 52.5378588], [13.3567792, 52.5381807], [13.3587209, 52.5390353], [13.3591176, 52.5392133], [13.3593181, 52.5393032], [13.359832, 52.5395451], [13.3603455, 52.539767], [13.3608202, 52.5399752], [13.3615669, 52.5402747], [13.3621594, 52.5405287], [13.3630757, 52.5409494], [13.3638886, 52.541334], [13.3644725, 52.5416007], [13.3653268, 52.5419772], [13.365673, 52.542137], [13.3657744, 52.5421814], [13.3658095, 52.5421971], [13.3662392, 52.5423855], [13.3664094, 52.5424603], [13.3665669, 52.5425315], [13.3666624, 52.5425742], [13.3668288, 52.5426485], [13.3668788, 52.5426709], [13.3670926, 52.5427664], [13.3676208, 52.5430023], [13.3679691, 52.5431578], [13.3679992, 52.5431709], [13.3681814, 52.5432517], [13.3683388, 52.5433212], [13.368399, 52.5433478], [13.3684712, 52.5433791], [13.3691344, 52.5436832], [13.3694296, 52.5438105], [13.3701851, 52.5441386], [13.3707008, 52.5443691], [13.3707168, 52.5443763], [13.371158, 52.5445709], [13.3712275, 52.5446023], [13.3715885, 52.544754], [13.3718885, 52.5448844], [13.3725306, 52.54516], [13.3738531, 52.5457192], [13.3740028, 52.5457821], [13.3749292, 52.546179], [13.3755327, 52.5464359], [13.3758559, 52.546574], [13.3763862, 52.5467982], [13.3767993, 52.5469687], [13.37701, 52.5470574], [13.3770774, 52.547083], [13.3773566, 52.5471892], [13.3776625, 52.5472959], [13.3779141, 52.5473785], [13.3782771, 52.5474864], [13.3790316, 52.5476982], [13.3800331, 52.5479453], [13.3801786, 52.5479795], [13.3802209, 52.5479891], [13.3806731, 52.5480844], [13.3811625, 52.5481711], [13.3819177, 52.5482731], [13.3822115, 52.5483002], [13.3822692, 52.5483055], [13.3826288, 52.5483315], [13.3835977, 52.5483819], [13.3838851, 52.5484011], [13.3841789, 52.548427], [13.3846057, 52.5484771], [13.3850447, 52.5485404], [13.3854967, 52.5486099], [13.3864976, 52.5487612], [13.3866711, 52.5487875], [13.3868573, 52.5488175], [13.3872593, 52.5488785], [13.3880151, 52.5489918], [13.3880248, 52.5489932], [13.3880426, 52.5489959], [13.3880781, 52.5490005], [13.3881435, 52.5490089], [13.3882627, 52.5490244], [13.3886215, 52.5490662], [13.388957, 52.5490971], [13.3892067, 52.5491222], [13.38928, 52.5491296], [13.3894792, 52.5491413], [13.3899951, 52.5491593]]}}]}